format  = 'OEF2.0'       ! file format
rectype = 'ML'           ! record type (1L/ML)
refsys  = ECLM J2000     ! default reference system
END_OF_HEADER
30101
! Equinoctial elements: a, e*sin(LP), e*cos(LP), tan(i/2)*sin(LN), tan(i/2)*cos(LN), mean long.
 EQU   2.1645211800959245E+00  -0.101670854288795   0.052914519218928    0.004036925827759   -0.013724430996847 160.6260225259974
 MJD     56117.141933590 TDT
 MAG  15.384  0.150
! Non-grav parameters: model used, actual number in use, dimension
 LSP   0  0    6
! RMS    7.16549E-09   3.90032E-08   3.87887E-08   3.37909E-08   3.57643E-08   3.03914E-06
! EIG   6.73615E-09   3.07156E-08   3.27773E-08   3.84335E-08   4.29852E-08   5.40702E-08
! WEA   0.01992   0.26492  -0.01647   0.00207   0.00749  -0.96389
 COV   5.134425528984636E-17  8.979958704878539E-17 -3.500103882565370E-18
 COV   1.808526674512649E-18  2.680106621190496E-18 -1.982299664471742E-15
 COV   1.521247809375959E-15  3.650335478155628E-16  1.276587197137048E-17
 COV   5.006624998740194E-18 -2.233002625360203E-14  1.504562392575795E-15
 COV   1.114615149822558E-18 -1.657385603398351E-18  7.132577937858631E-15
 COV   1.141824708652847E-15  2.577271025635270E-16  9.781879726497346E-17
 COV   1.279082507400978E-15 -6.165863377353235E-16  9.236348581243986E-12
 NOR   2.194244086277576E+16 -1.369562453238603E+15  3.780598626093422E+14
 NOR  -1.149171800318966E+13 -3.727847581818055E+13  1.103869652107463E+12
 NOR   8.156049266091409E+14 -2.097821111624413E+14 -7.300295836675315E+12
 NOR   1.763382826010512E+12  1.840086991572164E+12  7.210803697751880E+14
 NOR   1.064847979631161E+12  2.749665200065592E+11 -9.828676981570225E+11
 NOR   9.176196258242492E+14 -1.848612920696214E+14 -4.299689745990964E+10
 NOR   8.191557508397104E+14  5.269194898553271E+10  1.137164169945833E+11
30101
! Keplerian elements: a, e, i, long. node, arg. peric., mean anomaly
 KEP   2.1645211800959245E+00 0.114616355534382   1.6392155608119 163.6091975566502 133.8854914952473 223.1313334740999
 MJD     56117.141933590 TDT
 MAG  15.384  0.150
! Non-grav parameters: model used, actual number in use, dimension
 LSP   0  0    6
! RMS    7.16549E-09   3.49101E-08   3.84889E-06   1.43976E-04   1.45630E-04   2.15591E-05
! EIG   6.73675E-09   2.84018E-08   3.61451E-08   6.56757E-08   4.56278E-07   3.56476E-06
! WEA   0.00004  -0.00020  -0.00395  -0.70294   0.71119  -0.00830
 COV   5.134425528984636E-17 -8.127293003483260E-17 -2.361067345734494E-16
 COV  -9.977895831603627E-15  2.915008286408411E-14 -2.115448669695222E-14
 COV   1.218712392333096E-15  2.227696582448013E-16  4.741709936915459E-14
 COV  -1.555252714949606E-13  1.312089744984136E-13  1.481395990141446E-11
 COV   1.164751427199191E-10 -1.164101345470410E-10  5.924504388916518E-15
 COV   2.072916244796597E-08 -2.074285675130110E-08  1.401530752818917E-11
 COV   2.120813005121643E-08 -4.675848951031390E-10  4.647965271509545E-10
 NOR   2.194244086277576E+16  1.389412878695171E+15  2.838541433867663E+11
 NOR   5.152772269132075E+11  5.098979871988841E+11  1.103869652107463E+12
 NOR   9.672794895766302E+14  2.919627170937938E+10 -1.924249232682701E+12
 NOR  -1.922681562791253E+12 -2.086012829389905E+12  7.063064352048473E+10
 NOR  -9.736130043698007E+08 -5.768050203143002E+08 -5.471303895820439E+08
 NOR   1.159712841314343E+11  1.159132065425682E+11  1.136782940193744E+11
 NOR   1.159056065375475E+11  1.136717072434251E+11  1.137164169945833E+11
30101
! Cartesian position and velocity vectors
 CAR  -2.09152018629032E+00  1.08736549140748E+00 -1.29629745523026E-02 -4.23210893246061E-03 -9.81551162452243E-03  3.03656188986448E-04
 MJD     56117.141933590 TDT
 MAG  15.384  0.150
! Non-grav parameters: model used, actual number in use, dimension
 LSP   0  0    6
! RMS    1.19353E-07   1.71253E-07   1.75350E-07   6.01107E-10   3.88639E-10   6.99288E-10
! EIG   2.02427E-11   2.65357E-10   6.77303E-10   7.26773E-08   1.75086E-07   1.95918E-07
! WEA  -0.51823  -0.84819   0.10955   0.00271  -0.00082  -0.00005
 COV   1.424512592513762E-14  1.468048105101328E-14 -5.238852526378804E-16
 COV  -6.254285091992727E-17 -4.539110707265226E-18  1.908641172077178E-19
 COV   2.932773185000662E-14 -6.661734386104244E-16 -8.378795885727479E-17
 COV   3.965257408942149E-17 -1.624765952033082E-18  3.074759780324133E-14
 COV   4.552543726304976E-18 -3.039162418883463E-18 -3.055574687797688E-17
 COV   3.613295777870579E-19 -6.519002301641325E-20  4.558403446793992E-21
 COV   1.510406104031935E-19  9.175195107482595E-21  4.890036538455768E-19
 NOR   4.767395353744728E+16 -2.552390334732878E+16  3.246217838339522E+14
 NOR   4.126325209595722E+18  9.939674117409247E+18 -3.080927071296638E+17
 NOR   1.384525732436474E+16 -1.777753395790402E+14 -2.173098998667718E+18
 NOR  -5.353392135752626E+18  1.655593375673118E+17  3.707443380859957E+13
 NOR   2.690679748258614E+16  6.878244974155477E+16  5.785357856572638E+13
 NOR   3.673758689778373E+20  8.552274981796003E+20 -2.662089305637271E+19
 NOR   2.085173530462044E+21 -6.446533267060519E+19  4.176650902528938E+18
30101
! Cometary elements: q, e, i, long. node, arg. peric., pericenter time
 COM   1.91643165095635E+00  0.114616355534382    1.6392155608119  163.6091975566502  133.8854914952473   55396.2017269903
 MJD     56117.141933590 TDT
 MAG  15.384  0.150
! Non-grav parameters: model used, actual number in use, dimension
 LSP   0  0    6
! RMS    7.78563E-08   3.49101E-08   3.84889E-06   1.43976E-04   1.45630E-04   6.92585E-05
! EIG   2.32085E-09   3.83234E-08   6.56759E-08   8.42143E-08   3.55402E-06   6.92595E-05
! WEA   0.00018  -0.00008   0.00000  -0.00015   0.00545   0.99999
 COV   6.061609736353460E-15 -2.709886508641000E-15 -6.912346846931205E-16
 COV  -1.114695816587317E-13  3.624467507936888E-13  8.675376609798012E-13
 COV   1.218712392333096E-15  2.227696582448013E-16  4.741709936915459E-14
 COV  -1.555252714949606E-13 -3.833333442739250E-13  1.481395990141446E-11
 COV   1.164751427199191E-10 -1.164101345470410E-10  9.881846859335069E-14
 COV   2.072916244796597E-08 -2.074285675130110E-08 -4.029861043814502E-11
 COV   2.120813005121643E-08  1.496209215922955E-09  4.796736529522160E-09
 NOR   3.102422860219704E+16  6.908619134799267E+16  4.161542652133755E+11
 NOR  -1.927147023881637E+13 -1.927639548837506E+13  5.760837575981129E+12
 NOR   1.546911035451923E+17  9.299709929509644E+11 -4.363775473618900E+13
 NOR  -4.364684787328461E+13  1.311507690142120E+13  7.063064352048473E+10
 NOR  -9.736130043696487E+08 -5.768050203141478E+08  1.693371132502385E+08
 NOR   1.159712841314343E+11  1.159132065425682E+11 -3.518348553653362E+10
 NOR   1.159056065375476E+11 -3.518144692627524E+10  1.089295716388984E+10
30101
! Cometary elements: q, e, i, long. node, arg. peric., true anomaly
 COT   1.91643165095635E+00  0.114616355534382    1.6392155608119  163.6091975566502  133.8854914952473  215.0313081062440
 MJD     56117.141933590 TDT
 MAG  15.384  0.150
! Non-grav parameters: model used, actual number in use, dimension
 LSP   0  0    6
! RMS    7.78563E-08   3.49101E-08   3.84889E-06   1.43976E-04   1.45630E-04   1.78047E-05
! EIG   2.44379E-09   2.71896E-08   6.56753E-08   8.71511E-08   4.04098E-07   3.56472E-06
! WEA   0.00046  -0.00020  -0.00395  -0.70296   0.71118  -0.00671
 COV   6.061609736353460E-15 -2.709886508641000E-15 -6.912346846931205E-16
 COV  -1.114695816587317E-13  3.624467507936888E-13 -8.140777528699534E-14
 COV   1.218712392333096E-15  2.227696582448013E-16  4.741709936915459E-14
 COV  -1.555252714949606E-13  3.247449249020335E-14  1.481395990141446E-11
 COV   1.164751427199191E-10 -1.164101345470410E-10 -9.189600683886777E-15
 COV   2.072916244796597E-08 -2.074285675130110E-08  8.726347958003776E-12
 COV   2.120813005121643E-08 -3.817475227629615E-10  3.170088120530095E-10
 NOR   2.799122765500561E+16  6.225144692155708E+16  3.206001659981287E+11
 NOR   5.819818675600391E+11  5.759062643480437E+11  1.488585071171395E+12
 NOR   1.396510269971435E+17  6.816438031011539E+11  7.957645261025073E+12
 NOR   7.945562570447112E+12  1.102940786710507E+13  7.063064352048476E+10
 NOR  -9.736130043695561E+08 -5.768050203140538E+08 -6.532481646572902E+08
 NOR   1.159712841314343E+11  1.159132065425682E+11  1.357265806169027E+11
 NOR   1.159056065375476E+11  1.357187163136548E+11  1.621055516274689E+11
! EPH =   JPLDE431
